[
    {
        "Altitude(m)": 556874.5194810289,
        "Argument of Periapsis(deg)": 0.0,
        "Eccentricity": 0.0,
        "Inclination(deg)": 53.0,
        "Latitude(deg)": -13.153964479197997,
        "Longitude(deg)": 80.11773054477672,
        "Mean Anomaly(deg)": -163.6364,
        "RAAN(deg)": 350.0,
        "Satellite Name": "Starlink Shell 1 1552",
        "Satellite Number": 1552,
        "Semi-Major Axis(m)": 6931778.249405717,
        "Time(s)": 0
    },
    {
        "Altitude(m)": 557007.6090571609,
        "Argument of Periapsis(deg)": 0.00034857847951123687,
        "Eccentricity": 0.0,
        "Inclination(deg)": 53.0,
        "Latitude(deg)": -13.649215928191488,
        "Longitude(deg)": 80.47406983722757,
        "Mean Anomaly(deg)": -163.00956879644335,
        "RAAN(deg)": 349.99948122992254,
        "Satellite Name": "Starlink Shell 1 1552",
        "Satellite Number": 1552,
        "Semi-Major Axis(m)": 6931778.249405717,
        "Time(s)": 10
    },
    {
        "Altitude(m)": 557142.7934543148,
        "Argument of Periapsis(deg)": 0.0006971569590224737,
        "Eccentricity": 0.0,
        "Inclination(deg)": 53.0,
        "Latitude(deg)": -14.143794728338738,
        "Longitude(deg)": 80.8320576216465,
        "Mean Anomaly(deg)": -162.3827375928865,
        "RAAN(deg)": 349.9989624598451,
        "Satellite Name": "Starlink Shell 1 1552",
        "Satellite Number": 1552,
        "Semi-Major Axis(m)": 6931778.249405717,
        "Time(s)": 20
    },
    {
        "Altitude(m)": 557280.0299067216,
        "Argument of Periapsis(deg)": 0.0010457354385337105,
        "Eccentricity": 0.0,
        "Inclination(deg)": 53.0,
        "Latitude(deg)": -14.637673325026922,
        "Longitude(deg)": 81.19176111323172,
        "Mean Anomaly(deg)": -161.75590638932982,
        "RAAN(deg)": 349.9984436897676,
        "Satellite Name": "Starlink Shell 1 1552",
        "Satellite Number": 1552,
        "Semi-Major Axis(m)": 6931778.249405717,
        "Time(s)": 30
    },
    {
        "Altitude(m)": 557419.2745872403,
        "Argument of Periapsis(deg)": 0.0013943139180449475,
        "Eccentricity": 0.0,
        "Inclination(deg)": 53.0,
        "Latitude(deg)": -15.130823795590791,
        "Longitude(deg)": 81.55324875730015,
        "Mean Anomaly(deg)": -161.12907518577316,
        "RAAN(deg)": 349.9979249196901,
        "Satellite Name": "Starlink Shell 1 1552",
        "Satellite Number": 1552,
        "Semi-Major Axis(m)": 6931778.249405717,
        "Time(s)": 40
    },
    {
        "Altitude(m)": 557560.4826264583,
        "Argument of Periapsis(deg)": 0.0017428923975561844,
        "Eccentricity": 0.0,
        "Inclination(deg)": 53.0,
        "Latitude(deg)": -15.623217832929697,
        "Longitude(deg)": 81.91658924740359,
        "Mean Anomaly(deg)": -160.50224398221644,
        "RAAN(deg)": 349.9974061496127,
        "Satellite Name": "Starlink Shell 1 1552",
        "Satellite Number": 1552,
        "Semi-Major Axis(m)": 6931778.249405717,
        "Time(s)": 50
    },
    {
        "Altitude(m)": 557703.6081322593,
        "Argument of Periapsis(deg)": 0.002091470877067421,
        "Eccentricity": 0.0,
        "Inclination(deg)": 53.0,
        "Latitude(deg)": -16.11482672878162,
        "Longitude(deg)": 82.28185205628982,
        "Mean Anomaly(deg)": -159.87541277865967,
        "RAAN(deg)": 349.99688737953517,
        "Satellite Name": "Starlink Shell 1 1552",
        "Satellite Number": 1552,
        "Semi-Major Axis(m)": 6931778.249405717,
        "Time(s)": 60
    },
    {
        "Altitude(m)": 557848.604209926,
        "Argument of Periapsis(deg)": 0.0024400493565786582,
        "Eccentricity": 0.0,
        "Inclination(deg)": 53.0,
        "Latitude(deg)": -16.605621356641585,
        "Longitude(deg)": 82.64910796681326,
        "Mean Anomaly(deg)": -159.248581575103,
        "RAAN(deg)": 349.9963686094577,
        "Satellite Name": "Starlink Shell 1 1552",
        "Satellite Number": 1552,
        "Semi-Major Axis(m)": 6931778.249405717,
        "Time(s)": 70
    },
    {
        "Altitude(m)": 557995.4229826957,
        "Argument of Periapsis(deg)": 0.002788627836089895,
        "Eccentricity": 0.0,
        "Inclination(deg)": 53.0,
        "Latitude(deg)": -17.095572154314752,
        "Longitude(deg)": 83.01842808989694,
        "Mean Anomaly(deg)": -158.62175037154634,
        "RAAN(deg)": 349.99584983938024,
        "Satellite Name": "Starlink Shell 1 1552",
        "Satellite Number": 1552,
        "Semi-Major Axis(m)": 6931778.249405717,
        "Time(s)": 80
    },
    {
        "Altitude(m)": 558144.0156128164,
        "Argument of Periapsis(deg)": 0.0031372063156011316,
        "Eccentricity": 0.0,
        "Inclination(deg)": 53.0,
        "Latitude(deg)": -17.58464910608822,
        "Longitude(deg)": 83.38988439525967,
        "Mean Anomaly(deg)": -157.9949191679896,
        "RAAN(deg)": 349.9953310693028,
        "Satellite Name": "Starlink Shell 1 1552",
        "Satellite Number": 1552,
        "Semi-Major Axis(m)": 6931778.249405717,
        "Time(s)": 90
    },
    {
        "Altitude(m)": 558294.3323230981,
        "Argument of Periapsis(deg)": 0.0034857847951123688,
        "Eccentricity": 0.0,
        "Inclination(deg)": 53.0,
        "Latitude(deg)": -18.07282172451187,
        "Longitude(deg)": 83.76355024200566,
        "Mean Anomaly(deg)": -157.36808796443282,
        "RAAN(deg)": 349.99481229922526,
        "Satellite Name": "Starlink Shell 1 1552",
        "Satellite Number": 1552,
        "Semi-Major Axis(m)": 6931778.249405717,
        "Time(s)": 100
    },
    {
        "Altitude(m)": 558446.322418836,
        "Argument of Periapsis(deg)": 0.003834363274623606,
        "Eccentricity": 0.0,
        "Inclination(deg)": 53.0,
        "Latitude(deg)": -18.560059031777303,
        "Longitude(deg)": 84.13949939616666,
        "Mean Anomaly(deg)": -156.74125676087618,
        "RAAN(deg)": 349.9942935291478,
        "Satellite Name": "Starlink Shell 1 1552",
        "Satellite Number": 1552,
        "Semi-Major Axis(m)": 6931778.249405717,
        "Time(s)": 110
    },
    {
        "Altitude(m)": 558599.9343102936,
        "Argument of Periapsis(deg)": 0.004182941754134842,
        "Eccentricity": 0.0,
        "Inclination(deg)": 53.0,
        "Latitude(deg)": -19.04632954068128,
        "Longitude(deg)": 84.51780656090159,
        "Mean Anomaly(deg)": -156.1144255573194,
        "RAAN(deg)": 349.99377475907033,
        "Satellite Name": "Starlink Shell 1 1552",
        "Satellite Number": 1552,
        "Semi-Major Axis(m)": 6931778.249405717,
        "Time(s)": 120
    },
    {
        "Altitude(m)": 558755.1155355083,
        "Argument of Periapsis(deg)": 0.004531520233646079,
        "Eccentricity": 0.0,
        "Inclination(deg)": 53.0,
        "Latitude(deg)": -19.531601235162274,
        "Longitude(deg)": 84.8985479064363,
        "Mean Anomaly(deg)": -155.48759435376272,
        "RAAN(deg)": 349.9932559889928,
        "Satellite Name": "Starlink Shell 1 1552",
        "Satellite Number": 1552,
        "Semi-Major Axis(m)": 6931778.249405717,
        "Time(s)": 130
    },
    {
        "Altitude(m)": 558911.8127836166,
        "Argument of Periapsis(deg)": 0.0048800987131573164,
        "Eccentricity": 0.0,
        "Inclination(deg)": 53.0,
        "Latitude(deg)": -20.015841550401944,
        "Longitude(deg)": 85.28180008682318,
        "Mean Anomaly(deg)": -154.860763150206,
        "RAAN(deg)": 349.9927372189154,
        "Satellite Name": "Starlink Shell 1 1552",
        "Satellite Number": 1552,
        "Semi-Major Axis(m)": 6931778.249405717,
        "Time(s)": 140
    },
    {
        "Altitude(m)": 559069.9719185053,
        "Argument of Periapsis(deg)": 0.005228677192668553,
        "Eccentricity": 0.0,
        "Inclination(deg)": 53.0,
        "Latitude(deg)": -20.499017352477452,
        "Longitude(deg)": 85.66764076921085,
        "Mean Anomaly(deg)": -154.23393194664934,
        "RAAN(deg)": 349.99221844883795,
        "Satellite Name": "Starlink Shell 1 1552",
        "Satellite Number": 1552,
        "Semi-Major Axis(m)": 6931778.249405717,
        "Time(s)": 150
    },
    {
        "Altitude(m)": 559229.5380029164,
        "Argument of Periapsis(deg)": 0.00557725567217979,
        "Eccentricity": 0.0,
        "Inclination(deg)": 53.0,
        "Latitude(deg)": -20.981094917556263,
        "Longitude(deg)": 86.05614916269286,
        "Mean Anomaly(deg)": -153.60710074309253,
        "RAAN(deg)": 349.9916996787604,
        "Satellite Name": "Starlink Shell 1 1552",
        "Satellite Number": 1552,
        "Semi-Major Axis(m)": 6931778.249405717,
        "Time(s)": 160
    },
    {
        "Altitude(m)": 559390.4553228994,
        "Argument of Periapsis(deg)": 0.0059258341516910265,
        "Eccentricity": 0.0,
        "Inclination(deg)": 53.0,
        "Latitude(deg)": -21.462039910623282,
        "Longitude(deg)": 86.44740503379869,
        "Mean Anomaly(deg)": -152.98026953953584,
        "RAAN(deg)": 349.991180908683,
        "Satellite Name": "Starlink Shell 1 1552",
        "Satellite Number": 1552,
        "Semi-Major Axis(m)": 6931778.249405717,
        "Time(s)": 170
    },
    {
        "Altitude(m)": 559552.6674126658,
        "Argument of Periapsis(deg)": 0.006274412631202263,
        "Eccentricity": 0.0,
        "Inclination(deg)": 53.0,
        "Latitude(deg)": -21.94181736373123,
        "Longitude(deg)": 86.84148923430118,
        "Mean Anomaly(deg)": -152.35343833597912,
        "RAAN(deg)": 349.9906621386055,
        "Satellite Name": "Starlink Shell 1 1552",
        "Satellite Number": 1552,
        "Semi-Major Axis(m)": 6931778.249405717,
        "Time(s)": 180
    }
]